start=new Date('2023-03-16T00:00:00.000Z').valueOf();
sats=[{"APOAPSIS":"548.354","OBJECT_NAME":"STARLINK-2435","LAUNCH_DATE":"2021-03-11","TLE_LINE2":"2 47843  53.0512 109.2411 0001698  76.8110 283.3069 15.06411611112279","MEAN_ANOMALY":"283.3069","BSTAR":"0.00046442000000","MEAN_MOTION_DDOT":"0.0000000000000","COUNTRY_CODE":"US","REF_FRAME":"TEME","OBJECT_ID":"2021-018BJ","MEAN_MOTION":"15.06411611","EPOCH":"2023-03-15T19:37:42.748896","TLE_LINE1":"1 47843U 21018BJ  23074.81785589  .00006645  00000-0  46442-3 0  9999","PERIAPSIS":"546.002","SITE":"AFETR","EPHEMERIS_TYPE":"0","RCS_SIZE":"LARGE","CENTER_NAME":"EARTH","MEAN_ELEMENT_THEORY":"SGP4","OBJECT_TYPE":"PAYLOAD","ECCENTRICITY":"0.00016980","TIME_SYSTEM":"UTC","REV_AT_EPOCH":"11227","CLASSIFICATION_TYPE":"U","ELEMENT_SET_NO":"999","MEAN_MOTION_DOT":"0.00006645","ARG_OF_PERICENTER":"76.8110","SEMIMAJOR_AXIS":"6925.313","FILE":"3861599","NORAD_CAT_ID":"47843","INCLINATION":"53.0512","GP_ID":"228206991","DECAY_DATE":null,"RA_OF_ASC_NODE":"109.2411","PERIOD":"95.591"},{"GP_ID":"228206742","NORAD_CAT_ID":"47844","FILE":"3861599","INCLINATION":"53.0534","PERIOD":"95.591","RA_OF_ASC_NODE":"104.2479","DECAY_DATE":null,"CLASSIFICATION_TYPE":"U","REV_AT_EPOCH":"11232","ECCENTRICITY":"0.00012260","TIME_SYSTEM":"UTC","SEMIMAJOR_AXIS":"6925.311","ARG_OF_PERICENTER":"78.7604","MEAN_MOTION_DOT":"-0.00003381","ELEMENT_SET_NO":"999","TLE_LINE1":"1 47844U 21018BK  23074.81646210 -.00003381  00000-0 -20815-3 0  9999","OBJECT_TYPE":"PAYLOAD","MEAN_ELEMENT_THEORY":"SGP4","RCS_SIZE":"LARGE","CENTER_NAME":"EARTH","PERIAPSIS":"546.327","SITE":"AFETR","EPHEMERIS_TYPE":"0","MEAN_MOTION_DDOT":"0.0000000000000","MEAN_ANOMALY":"281.3522","BSTAR":"-0.00020815000000","TLE_LINE2":"2 47844  53.0534 104.2479 0001226  78.7604 281.3522 15.06412384112325","APOAPSIS":"548.025","LAUNCH_DATE":"2021-03-11","OBJECT_NAME":"STARLINK-2446","EPOCH":"2023-03-15T19:35:42.325440","OBJECT_ID":"2021-018BK","MEAN_MOTION":"15.06412384","REF_FRAME":"TEME","COUNTRY_CODE":"US"},{"REF_FRAME":"TEME","COUNTRY_CODE":"US","OBJECT_ID":"2021-018BL","MEAN_MOTION":"15.06408851","EPOCH":"2023-03-15T18:26:44.039328","APOAPSIS":"548.736","LAUNCH_DATE":"2021-03-11","OBJECT_NAME":"STARLINK-2453","TLE_LINE2":"2 47845  53.0539 104.4630 0002237  83.9021 276.2223 15.06408851112321","MEAN_ANOMALY":"276.2223","BSTAR":"0.00031074000000","MEAN_MOTION_DDOT":"0.0000000000000","PERIAPSIS":"545.637","SITE":"AFETR","EPHEMERIS_TYPE":"0","RCS_SIZE":"LARGE","CENTER_NAME":"EARTH","MEAN_ELEMENT_THEORY":"SGP4","OBJECT_TYPE":"PAYLOAD","TLE_LINE1":"1 47845U 21018BL  23074.76856527  .00004351  00000-0  31074-3 0  9993","ELEMENT_SET_NO":"999","MEAN_MOTION_DOT":"0.00004351","SEMIMAJOR_AXIS":"6925.321","ARG_OF_PERICENTER":"83.9021","ECCENTRICITY":"0.00022370","TIME_SYSTEM":"UTC","REV_AT_EPOCH":"11232","CLASSIFICATION_TYPE":"U","DECAY_DATE":null,"RA_OF_ASC_NODE":"104.4630","PERIOD":"95.592","FILE":"3861599","NORAD_CAT_ID":"47845","INCLINATION":"53.0539","GP_ID":"228205490"},{"CENTER_NAME":"EARTH","RCS_SIZE":"LARGE","OBJECT_TYPE":"PAYLOAD","MEAN_ELEMENT_THEORY":"SGP4","EPHEMERIS_TYPE":"0","PERIAPSIS":"546.049","SITE":"AFETR","TLE_LINE1":"1 47846U 21018BM  23074.56488074  .00029628  00000-0  19974-2 0  9998","EPOCH":"2023-03-15T13:33:25.695936","REF_FRAME":"TEME","COUNTRY_CODE":"US","OBJECT_ID":"2021-018BM","MEAN_MOTION":"15.06440760","BSTAR":"0.00199740000000","MEAN_ANOMALY":"290.4891","MEAN_MOTION_DDOT":"0.0000000000000","LAUNCH_DATE":"2021-03-11","OBJECT_NAME":"STARLINK-2456","APOAPSIS":"548.128","TLE_LINE2":"2 47846  53.0535 105.3646 0001501  69.6260 290.4891 15.06440760112340","RA_OF_ASC_NODE":"105.3646","PERIOD":"95.590","DECAY_DATE":null,"GP_ID":"228206240","INCLINATION":"53.0535","NORAD_CAT_ID":"47846","FILE":"3861599","SEMIMAJOR_AXIS":"6925.224","ARG_OF_PERICENTER":"69.6260","ELEMENT_SET_NO":"999","MEAN_MOTION_DOT":"0.00029628","REV_AT_EPOCH":"11234","CLASSIFICATION_TYPE":"U","TIME_SYSTEM":"UTC","ECCENTRICITY":"0.00015010"},{"TLE_LINE1":"1 47860U 21021A   23074.50408781  .00018360  00000-0  12469-2 0  9992","OBJECT_TYPE":"PAYLOAD","MEAN_ELEMENT_THEORY":"SGP4","CENTER_NAME":"EARTH","RCS_SIZE":"LARGE","SITE":"AFETR","PERIAPSIS":"545.783","EPHEMERIS_TYPE":"0","MEAN_MOTION_DDOT":"0.0000000000000","MEAN_ANOMALY":"264.0702","BSTAR":"0.00124690000000","TLE_LINE2":"2 47860  53.0546 135.6443 0001887  96.0502 264.0702 15.06440503111240","APOAPSIS":"548.396","OBJECT_NAME":"STARLINK-2258","LAUNCH_DATE":"2021-03-14","EPOCH":"2023-03-15T12:05:53.186784","OBJECT_ID":"2021-021A","MEAN_MOTION":"15.06440503","COUNTRY_CODE":"US","REF_FRAME":"TEME","GP_ID":"228125103","FILE":"3861247","NORAD_CAT_ID":"47860","INCLINATION":"53.0546","PERIOD":"95.590","RA_OF_ASC_NODE":"135.6443","DECAY_DATE":null,"CLASSIFICATION_TYPE":"U","REV_AT_EPOCH":"11124","ECCENTRICITY":"0.00018870","TIME_SYSTEM":"UTC","ARG_OF_PERICENTER":"96.0502","SEMIMAJOR_AXIS":"6925.224","MEAN_MOTION_DOT":"0.00018360","ELEMENT_SET_NO":"999"},{"DECAY_DATE":null,"PERIOD":"95.592","RA_OF_ASC_NODE":"119.0772","INCLINATION":"53.0547","FILE":"3861599","NORAD_CAT_ID":"47861","GP_ID":"228207243","MEAN_MOTION_DOT":"0.00005161","ELEMENT_SET_NO":"999","ARG_OF_PERICENTER":"96.1493","SEMIMAJOR_AXIS":"6925.334","TIME_SYSTEM":"UTC","ECCENTRICITY":"0.00014200","CLASSIFICATION_TYPE":"U","REV_AT_EPOCH":"11200","EPHEMERIS_TYPE":"0","SITE":"AFETR","PERIAPSIS":"546.216","OBJECT_TYPE":"PAYLOAD","MEAN_ELEMENT_THEORY":"SGP4","RCS_SIZE":"LARGE","CENTER_NAME":"EARTH","TLE_LINE1":"1 47861U 21021B   23074.85379296  .00005161  00000-0  36506-3 0  9993","MEAN_MOTION":"15.06404751","OBJECT_ID":"2021-021B","REF_FRAME":"TEME","COUNTRY_CODE":"US","EPOCH":"2023-03-15T20:29:27.711744","TLE_LINE2":"2 47861  53.0547 119.0772 0001420  96.1493 263.9658 15.06404751112004","LAUNCH_DATE":"2021-03-14","OBJECT_NAME":"STARLINK-2280","APOAPSIS":"548.182","MEAN_MOTION_DDOT":"0.0000000000000","BSTAR":"0.00036506000000","MEAN_ANOMALY":"263.9658"},{"TLE_LINE1":"1 47862U 21021C   23074.83402124  .00016414  00000-0  11185-2 0  9997","MEAN_ELEMENT_THEORY":"SGP4","OBJECT_TYPE":"PAYLOAD","CENTER_NAME":"EARTH","RCS_SIZE":"LARGE","EPHEMERIS_TYPE":"0","PERIAPSIS":"546.028","SITE":"AFETR","MEAN_MOTION_DDOT":"0.0000000000000","BSTAR":"0.00111850000000","MEAN_ANOMALY":"275.8811","TLE_LINE2":"2 47862  53.0513 114.1681 0001747  84.2377 275.8811 15.06392024112062","LAUNCH_DATE":"2021-03-14","OBJECT_NAME":"STARLINK-2291","APOAPSIS":"548.448","EPOCH":"2023-03-15T20:00:59.435136","OBJECT_ID":"2021-021C","MEAN_MOTION":"15.06392024","COUNTRY_CODE":"US","REF_FRAME":"TEME","GP_ID":"228205991","INCLINATION":"53.0513","FILE":"3861599","NORAD_CAT_ID":"47862","PERIOD":"95.593","RA_OF_ASC_NODE":"114.1681","DECAY_DATE":null,"CLASSIFICATION_TYPE":"U","REV_AT_EPOCH":"11206","TIME_SYSTEM":"UTC","ECCENTRICITY":"0.00017470","SEMIMAJOR_AXIS":"6925.373","ARG_OF_PERICENTER":"84.2377","MEAN_MOTION_DOT":"0.00016414","ELEMENT_SET_NO":"999"},{"TLE_LINE2":"2 47863  53.0524 124.0569 0003143  79.9198 280.2145 15.06406159111934","LAUNCH_DATE":"2021-03-14","OBJECT_NAME":"STARLINK-2293","APOAPSIS":"549.371","MEAN_MOTION_DDOT":"0.0000000000000","BSTAR":"0.00012487000000","MEAN_ANOMALY":"280.2145","OBJECT_ID":"2021-021D","MEAN_MOTION":"15.06406159","COUNTRY_CODE":"US","REF_FRAME":"TEME","EPOCH":"2023-03-15T20:36:45.957600","TLE_LINE1":"1 47863U 21021D   23074.85886525  .00001579  00000-0  12487-3 0  9994","EPHEMERIS_TYPE":"0","PERIAPSIS":"545.018","SITE":"AFETR","OBJECT_TYPE":"PAYLOAD","MEAN_ELEMENT_THEORY":"SGP4","CENTER_NAME":"EARTH","RCS_SIZE":"LARGE","TIME_SYSTEM":"UTC","ECCENTRICITY":"0.00031430","CLASSIFICATION_TYPE":"U","REV_AT_EPOCH":"11193","MEAN_MOTION_DOT":"0.00001579","ELEMENT_SET_NO":"999","ARG_OF_PERICENTER":"79.9198","SEMIMAJOR_AXIS":"6925.330","INCLINATION":"53.0524","NORAD_CAT_ID":"47863","FILE":"3861599","GP_ID":"228205742","DECAY_DATE":null,"PERIOD":"95.592","RA_OF_ASC_NODE":"124.0569"},{"CLASSIFICATION_TYPE":"U","REV_AT_EPOCH":"11204","TIME_SYSTEM":"UTC","ECCENTRICITY":"0.00023200","ARG_OF_PERICENTER":"87.1395","SEMIMAJOR_AXIS":"6925.374","MEAN_MOTION_DOT":"0.00014359","ELEMENT_SET_NO":"999","GP_ID":"228206993","INCLINATION":"53.0521","NORAD_CAT_ID":"47864","FILE":"3861599","PERIOD":"95.593","RA_OF_ASC_NODE":"114.2007","DECAY_DATE":null,"MEAN_MOTION_DDOT":"0.0000000000000","BSTAR":"0.00098108000000","MEAN_ANOMALY":"272.9860","TLE_LINE2":"2 47864  53.0521 114.2007 0002320  87.1395 272.9860 15.06391658112048","LAUNCH_DATE":"2021-03-14","OBJECT_NAME":"STARLINK-2304","APOAPSIS":"548.846","EPOCH":"2023-03-15T20:06:14.981760","MEAN_MOTION":"15.06391658","OBJECT_ID":"2021-021E","REF_FRAME":"TEME","COUNTRY_CODE":"US","TLE_LINE1":"1 47864U 21021E   23074.83767340  .00014359  00000-0  98108-3 0  9990","OBJECT_TYPE":"PAYLOAD","MEAN_ELEMENT_THEORY":"SGP4","CENTER_NAME":"EARTH","RCS_SIZE":"LARGE","EPHEMERIS_TYPE":"0","PERIAPSIS":"545.632","SITE":"AFETR"},{"ECCENTRICITY":"0.00028210","TIME_SYSTEM":"UTC","REV_AT_EPOCH":"11203","CLASSIFICATION_TYPE":"U","ELEMENT_SET_NO":"999","MEAN_MOTION_DOT":"0.00003482","SEMIMAJOR_AXIS":"6925.310","ARG_OF_PERICENTER":"81.1653","NORAD_CAT_ID":"47865","FILE":"3861599","INCLINATION":"53.0517","GP_ID":"228206744","DECAY_DATE":null,"RA_OF_ASC_NODE":"124.1682","PERIOD":"95.591","APOAPSIS":"549.129","LAUNCH_DATE":"2021-03-14","OBJECT_NAME":"STARLINK-2310","TLE_LINE2":"2 47865  53.0517 124.1682 0002821  81.1653 278.9655 15.06412510112038","MEAN_ANOMALY":"278.9655","BSTAR":"0.00025250000000","MEAN_MOTION_DDOT":"0.0000000000000","COUNTRY_CODE":"US","REF_FRAME":"TEME","OBJECT_ID":"2021-021F","MEAN_MOTION":"15.06412510","EPOCH":"2023-03-15T19:58:15.566304","TLE_LINE1":"1 47865U 21021F   23074.83212461  .00003482  00000-0  25250-3 0  9993","PERIAPSIS":"545.222","SITE":"AFETR","EPHEMERIS_TYPE":"0","CENTER_NAME":"EARTH","RCS_SIZE":"LARGE","OBJECT_TYPE":"PAYLOAD","MEAN_ELEMENT_THEORY":"SGP4"}];
